QIANFAN-33              
1 61566U 24185Q   25230.89777452  .00000279  00000+0  19256-3 0  9998
2 61566  88.9761  91.7426 0006308 345.8018  14.2980 13.96413787 52998
QIANFAN-34              
1 61567U 24185R   25230.90985692  .00000343  00000+0  21533-3 0  9991
2 61567  88.9740  91.4576 0005906 358.7031   1.4133 14.02167571 53129
QIANFAN-35              
1 61568U 24185S   25230.85197056  .00000591  00000+0  23389-3 0  9991
2 61568  88.9763  90.5012 0005299 324.6948  35.3894 14.27675924 53644
QIANFAN-36              
1 61569U 24185T   25230.85355851  .00000051  00000+0  55257-4 0  9992
2 61569  88.9750  93.1347 0007233  32.8256 327.3345 13.55547037 52222
QIANFAN-37              
1 62238U 24232B   25230.85883301  .00000078  00000+0  10217-3 0  9990
2 62238  88.9927  53.0387 0002623  86.3599 273.7852 13.50966540 83526
QIANFAN-38              
1 62239U 24232C   25230.88371911  .00000055  00000+0  66850-4 0  9993
2 62239  88.9934  52.9440 0015048 162.8442 197.3221 13.50964099 83589
QIANFAN-39              
1 62240U 24232D   25230.86525089  .00000170  00000+0  65980-4 0  9991
2 62240  88.9934  50.5690 0018469  97.3986 262.9306 14.25233903 84880
QIANFAN-40              
1 62241U 24232E   25230.91658800  .00000058  00000+0  71277-4 0  9997
2 62241  88.9962  52.4926 0013830 169.9202 190.2229 13.50960726 83950
